start=new Date('2022-09-04T00:00:00.000Z').valueOf();
sats=[{"ECCENTRICITY":"0.00012560","GP_ID":"211668279","COUNTRY_CODE":"US","TLE_LINE2":"2 45708  53.0563  35.5014 0001256  95.5611 264.5521 15.06402012125809","MEAN_ANOMALY":"264.5521","MEAN_ELEMENT_THEORY":"SGP4","TIME_SYSTEM":"UTC","BSTAR":"0.00016567000000","FILE":"3556957","REF_FRAME":"TEME","INCLINATION":"53.0563","ELEMENT_SET_NO":"999","REV_AT_EPOCH":"12580","EPHEMERIS_TYPE":"0","NORAD_CAT_ID":"45708","RCS_SIZE":"LARGE","TLE_LINE1":"1 45708U 20035BD  22246.84971170  .00002187  00000-0  16567-3 0  9993","SITE":"AFETR","DECAY_DATE":null,"OBJECT_TYPE":"PAYLOAD","MEAN_MOTION_DDOT":"0.0000000000000","EPOCH":"2022-09-03T20:23:35.090880","CENTER_NAME":"EARTH","ARG_OF_PERICENTER":"95.5611","MEAN_MOTION_DOT":"0.00002187","SEMIMAJOR_AXIS":"6925.342","LAUNCH_DATE":"2020-06-04","MEAN_MOTION":"15.06402012","OBJECT_NAME":"STARLINK-1418","OBJECT_ID":"2020-035BD","CLASSIFICATION_TYPE":"U","APOAPSIS":"548.077","PERIAPSIS":"546.338","RA_OF_ASC_NODE":"35.5014","PERIOD":"95.592"},{"REV_AT_EPOCH":"12575","ELEMENT_SET_NO":"999","INCLINATION":"53.0561","NORAD_CAT_ID":"45709","EPHEMERIS_TYPE":"0","TLE_LINE2":"2 45709  53.0561  35.6547 0001392 101.2641 258.8505 15.06401617125751","COUNTRY_CODE":"US","GP_ID":"211668530","ECCENTRICITY":"0.00013920","REF_FRAME":"TEME","FILE":"3556957","BSTAR":"0.00008508600000","TIME_SYSTEM":"UTC","MEAN_ELEMENT_THEORY":"SGP4","MEAN_ANOMALY":"258.8505","PERIAPSIS":"546.245","RA_OF_ASC_NODE":"35.6547","CLASSIFICATION_TYPE":"U","APOAPSIS":"548.173","OBJECT_ID":"2020-035BE","OBJECT_NAME":"STARLINK-1421","MEAN_MOTION":"15.06401617","LAUNCH_DATE":"2020-06-04","PERIOD":"95.592","MEAN_MOTION_DDOT":"0.0000000000000","OBJECT_TYPE":"PAYLOAD","SITE":"AFETR","DECAY_DATE":null,"RCS_SIZE":"LARGE","TLE_LINE1":"1 45709U 20035BE  22246.82022381  .00000986  00000-0  85086-4 0  9991","SEMIMAJOR_AXIS":"6925.344","MEAN_MOTION_DOT":"0.00000986","ARG_OF_PERICENTER":"101.2641","CENTER_NAME":"EARTH","EPOCH":"2022-09-03T19:41:07.337184"},{"OBJECT_ID":"2020-035BF","OBJECT_NAME":"STARLINK-1423","CLASSIFICATION_TYPE":"U","APOAPSIS":"547.989","LAUNCH_DATE":"2020-06-04","MEAN_MOTION":"15.06412542","RA_OF_ASC_NODE":"36.2701","PERIAPSIS":"546.361","PERIOD":"95.591","TLE_LINE1":"1 45710U 20035BF  22246.68384771  .00001879  00000-0  14496-3 0  9999","RCS_SIZE":"LARGE","MEAN_MOTION_DDOT":"0.0000000000000","DECAY_DATE":null,"SITE":"AFETR","OBJECT_TYPE":"PAYLOAD","CENTER_NAME":"EARTH","EPOCH":"2022-09-03T16:24:44.442144","MEAN_MOTION_DOT":"0.00001879","SEMIMAJOR_AXIS":"6925.310","ARG_OF_PERICENTER":"102.0686","INCLINATION":"53.0556","ELEMENT_SET_NO":"999","REV_AT_EPOCH":"12577","EPHEMERIS_TYPE":"0","NORAD_CAT_ID":"45710","ECCENTRICITY":"0.00011750","TLE_LINE2":"2 45710  53.0556  36.2701 0001175 102.0686 258.0434 15.06412542125777","GP_ID":"211668773","COUNTRY_CODE":"US","FILE":"3556957","BSTAR":"0.00014496000000","MEAN_ANOMALY":"258.0434","MEAN_ELEMENT_THEORY":"SGP4","TIME_SYSTEM":"UTC","REF_FRAME":"TEME"},{"RA_OF_ASC_NODE":"36.0376","PERIAPSIS":"546.249","CLASSIFICATION_TYPE":"U","APOAPSIS":"548.145","OBJECT_NAME":"STARLINK-1433","OBJECT_ID":"2020-035BG","MEAN_MOTION":"15.06405330","LAUNCH_DATE":"2020-06-04","PERIOD":"95.592","MEAN_MOTION_DDOT":"0.0000000000000","OBJECT_TYPE":"PAYLOAD","DECAY_DATE":null,"SITE":"AFETR","RCS_SIZE":"LARGE","TLE_LINE1":"1 45711U 20035BG  22246.73175496  .00002531  00000-0  18875-3 0  9999","SEMIMAJOR_AXIS":"6925.332","MEAN_MOTION_DOT":"0.00002531","ARG_OF_PERICENTER":"93.8363","CENTER_NAME":"EARTH","EPOCH":"2022-09-03T17:33:43.628544","REV_AT_EPOCH":"12577","ELEMENT_SET_NO":"999","INCLINATION":"53.0555","NORAD_CAT_ID":"45711","EPHEMERIS_TYPE":"0","TLE_LINE2":"2 45711  53.0555  36.0376 0001369  93.8363 266.2782 15.06405330125771","COUNTRY_CODE":"US","GP_ID":"211667530","ECCENTRICITY":"0.00013690","REF_FRAME":"TEME","FILE":"3556957","BSTAR":"0.00018875000000","TIME_SYSTEM":"UTC","MEAN_ANOMALY":"266.2782","MEAN_ELEMENT_THEORY":"SGP4"},{"ECCENTRICITY":"0.00013830","TLE_LINE2":"2 45712  53.0549  35.4637 0001383  97.8199 262.2947 15.06398087125808","COUNTRY_CODE":"US","GP_ID":"211667780","FILE":"3556957","BSTAR":"0.00010729000000","TIME_SYSTEM":"UTC","MEAN_ANOMALY":"262.2947","MEAN_ELEMENT_THEORY":"SGP4","REF_FRAME":"TEME","ELEMENT_SET_NO":"999","INCLINATION":"53.0549","REV_AT_EPOCH":"12580","EPHEMERIS_TYPE":"0","NORAD_CAT_ID":"45712","RCS_SIZE":"LARGE","TLE_LINE1":"1 45712U 20035BH  22246.86077780  .00001317  00000-0  10729-3 0  9992","MEAN_MOTION_DDOT":"0.0000000000000","OBJECT_TYPE":"PAYLOAD","DECAY_DATE":null,"SITE":"AFETR","CENTER_NAME":"EARTH","EPOCH":"2022-09-03T20:39:31.201920","SEMIMAJOR_AXIS":"6925.354","MEAN_MOTION_DOT":"0.00001317","ARG_OF_PERICENTER":"97.8199","CLASSIFICATION_TYPE":"U","APOAPSIS":"548.177","OBJECT_NAME":"STARLINK-1434","OBJECT_ID":"2020-035BH","MEAN_MOTION":"15.06398087","LAUNCH_DATE":"2020-06-04","PERIAPSIS":"546.262","RA_OF_ASC_NODE":"35.4637","PERIOD":"95.592"},{"REF_FRAME":"TEME","MEAN_ANOMALY":"272.7477","MEAN_ELEMENT_THEORY":"SGP4","TIME_SYSTEM":"UTC","BSTAR":"0.00012054000000","FILE":"3556957","GP_ID":"211669030","COUNTRY_CODE":"US","TLE_LINE2":"2 45713  53.0547  55.9519 0001345  87.3665 272.7477 15.06404005125490","ECCENTRICITY":"0.00013450","NORAD_CAT_ID":"45713","EPHEMERIS_TYPE":"0","REV_AT_EPOCH":"12549","INCLINATION":"53.0547","ELEMENT_SET_NO":"999","ARG_OF_PERICENTER":"87.3665","MEAN_MOTION_DOT":"0.00001515","SEMIMAJOR_AXIS":"6925.336","EPOCH":"2022-09-03T17:57:37.135008","CENTER_NAME":"EARTH","SITE":"AFETR","DECAY_DATE":null,"OBJECT_TYPE":"PAYLOAD","MEAN_MOTION_DDOT":"0.0000000000000","TLE_LINE1":"1 45713U 20035BJ  22246.74834647  .00001515  00000-0  12054-3 0  9996","RCS_SIZE":"LARGE","PERIOD":"95.592","PERIAPSIS":"546.270","RA_OF_ASC_NODE":"55.9519","LAUNCH_DATE":"2020-06-04","MEAN_MOTION":"15.06404005","OBJECT_NAME":"STARLINK-1436","OBJECT_ID":"2020-035BJ","APOAPSIS":"548.133","CLASSIFICATION_TYPE":"U"},{"NORAD_CAT_ID":"45714","EPHEMERIS_TYPE":"0","REV_AT_EPOCH":"12578","ELEMENT_SET_NO":"999","INCLINATION":"53.0558","REF_FRAME":"TEME","TIME_SYSTEM":"UTC","MEAN_ANOMALY":"268.1564","MEAN_ELEMENT_THEORY":"SGP4","FILE":"3556957","BSTAR":"0.00013318000000","COUNTRY_CODE":"US","GP_ID":"211669273","TLE_LINE2":"2 45714  53.0558  36.0084 0001285  91.9572 268.1564 15.06399163125787","ECCENTRICITY":"0.00012850","PERIOD":"95.592","PERIAPSIS":"546.326","RA_OF_ASC_NODE":"36.0084","MEAN_MOTION":"15.06399163","LAUNCH_DATE":"2020-06-04","APOAPSIS":"548.106","CLASSIFICATION_TYPE":"U","OBJECT_ID":"2020-035BK","OBJECT_NAME":"STARLINK-1437","ARG_OF_PERICENTER":"91.9572","SEMIMAJOR_AXIS":"6925.351","MEAN_MOTION_DOT":"0.00001703","EPOCH":"2022-09-03T17:44:21.221664","CENTER_NAME":"EARTH","OBJECT_TYPE":"PAYLOAD","DECAY_DATE":null,"SITE":"AFETR","MEAN_MOTION_DDOT":"0.0000000000000","RCS_SIZE":"LARGE","TLE_LINE1":"1 45714U 20035BK  22246.73913451  .00001703  00000-0  13318-3 0  9990"},{"LAUNCH_DATE":"2020-06-13","MEAN_MOTION":"15.06399747","OBJECT_NAME":"STARLINK-1461","OBJECT_ID":"2020-038A","APOAPSIS":"548.291","CLASSIFICATION_TYPE":"U","RA_OF_ASC_NODE":"236.2681","PERIAPSIS":"546.138","PERIOD":"95.592","RCS_SIZE":"LARGE","TLE_LINE1":"1 45730U 20038A   22246.68384451 -.00000351  00000-0 -46711-5 0  9992","SITE":"AFETR","DECAY_DATE":null,"OBJECT_TYPE":"PAYLOAD","MEAN_MOTION_DDOT":"0.0000000000000","EPOCH":"2022-09-03T16:24:44.165664","CENTER_NAME":"EARTH","ARG_OF_PERICENTER":"73.9994","MEAN_MOTION_DOT":"-0.00000351","SEMIMAJOR_AXIS":"6925.349","ELEMENT_SET_NO":"999","INCLINATION":"53.0524","REV_AT_EPOCH":"12282","EPHEMERIS_TYPE":"0","NORAD_CAT_ID":"45730","ECCENTRICITY":"0.00015540","GP_ID":"211667531","COUNTRY_CODE":"US","TLE_LINE2":"2 45730  53.0524 236.2681 0001554  73.9994 286.1166 15.06399747122820","MEAN_ANOMALY":"286.1166","MEAN_ELEMENT_THEORY":"SGP4","TIME_SYSTEM":"UTC","BSTAR":"-0.00000467110000","FILE":"3556957","REF_FRAME":"TEME"},{"EPOCH":"2022-09-03T16:45:57.963456","CENTER_NAME":"EARTH","ARG_OF_PERICENTER":"66.9938","MEAN_MOTION_DOT":"0.00000146","SEMIMAJOR_AXIS":"6925.352","TLE_LINE1":"1 45731U 20038B   22246.69858754  .00000146  00000-0  28687-4 0  9997","RCS_SIZE":"LARGE","SITE":"AFETR","DECAY_DATE":null,"OBJECT_TYPE":"PAYLOAD","MEAN_MOTION_DDOT":"0.0000000000000","PERIOD":"95.592","LAUNCH_DATE":"2020-06-13","MEAN_MOTION":"15.06398869","OBJECT_ID":"2020-038B","OBJECT_NAME":"STARLINK-1465","APOAPSIS":"548.155","CLASSIFICATION_TYPE":"U","PERIAPSIS":"546.279","RA_OF_ASC_NODE":"236.1921","MEAN_ANOMALY":"293.1194","MEAN_ELEMENT_THEORY":"SGP4","TIME_SYSTEM":"UTC","FILE":"3556957","BSTAR":"0.00002868700000","REF_FRAME":"TEME","ECCENTRICITY":"0.00013550","GP_ID":"211667781","COUNTRY_CODE":"US","TLE_LINE2":"2 45731  53.0541 236.1921 0001355  66.9938 293.1194 15.06398869122817","EPHEMERIS_TYPE":"0","NORAD_CAT_ID":"45731","ELEMENT_SET_NO":"999","INCLINATION":"53.0541","REV_AT_EPOCH":"12281"},{"SEMIMAJOR_AXIS":"6925.340","MEAN_MOTION_DOT":"0.00001689","ARG_OF_PERICENTER":"73.3061","CENTER_NAME":"EARTH","EPOCH":"2022-09-03T06:56:48.366816","MEAN_MOTION_DDOT":"0.0000000000000","OBJECT_TYPE":"PAYLOAD","SITE":"AFETR","DECAY_DATE":null,"RCS_SIZE":"LARGE","TLE_LINE1":"1 45732U 20038C   22246.28944869  .00001689  00000-0  13228-3 0  9993","PERIOD":"95.592","RA_OF_ASC_NODE":"238.0282","PERIAPSIS":"546.090","CLASSIFICATION_TYPE":"U","APOAPSIS":"548.320","OBJECT_ID":"2020-038C","OBJECT_NAME":"STARLINK-1466","MEAN_MOTION":"15.06402852","LAUNCH_DATE":"2020-06-13","REF_FRAME":"TEME","FILE":"3556494","BSTAR":"0.00013228000000","TIME_SYSTEM":"UTC","MEAN_ANOMALY":"286.8105","MEAN_ELEMENT_THEORY":"SGP4","TLE_LINE2":"2 45732  53.0544 238.0282 0001610  73.3061 286.8105 15.06402852122757","COUNTRY_CODE":"US","GP_ID":"211631995","ECCENTRICITY":"0.00016100","NORAD_CAT_ID":"45732","EPHEMERIS_TYPE":"0","REV_AT_EPOCH":"12275","ELEMENT_SET_NO":"999","INCLINATION":"53.0544"}];
